{
  "norad_id": 56052,
  "name": "ONEWEB-0550",
  "history": [
    {
      "epoch": "2026-03-28T20:07:48.266112",
      "apogee_km": 1178.9847271516392,
      "perigee_km": 1176.5224135325761,
      "latitude_deg": 73.5691578799157,
      "longitude_deg": -134.27970432001166,
      "semi_major_axis_km": 7555.890570342107,
      "eccentricity": 0.00016294,
      "inclination_deg": 87.9174,
      "raan_deg": 259.9909,
      "arg_perigee_deg": 97.9827,
      "mean_anomaly_deg": 262.1492,
      "mean_motion_rev_day": 13.21825947
    }
  ]
}