{"fetched_at":"2026-03-29T16:36:15Z","count":15609,"tles":[{"name":"ONEWEB-0550","line1":"1 56052U 23043G   26087.83875308  .00000012  00000+0 -24100-5 0  9990","line2":"2 56052  87.9174 259.9909 0001629  97.9827 262.1492 13.21825947147616","category":"Other"}]}